[{"OBJECT_NAME":"SHIYAN-1 (SY-1)","OBJECT_ID":"2004-012A","EPOCH":"2026-03-09T17:40:34.066560","MEAN_MOTION":15.31043463,"ECCENTRICITY":0.00058726,"INCLINATION":97.8764,"RA_OF_ASC_NODE":140.5238,"ARG_OF_PERICENTER":23.6952,"MEAN_ANOMALY":336.4557,"EPHEMERIS_TYPE":0,"CLASSIFICATION_TYPE":"U","NORAD_CAT_ID":28220,"ELEMENT_SET_NO":999,"REV_AT_EPOCH":19586,"BSTAR":0.00054854449,"MEAN_MOTION_DOT":0.00016393,"MEAN_MOTION_DDOT":0},{"OBJECT_NAME":"STARLINK-31440","OBJECT_ID":"2024-036B","EPOCH":"2026-03-09T08:11:46.768128","MEAN_MOTION":15.30189209,"ECCENTRICITY":0.00012019,"INCLINATION":53.1609,"RA_OF_ASC_NODE":79.4817,"ARG_OF_PERICENTER":94.6236,"MEAN_ANOMALY":265.4902,"EPHEMERIS_TYPE":0,"CLASSIFICATION_TYPE":"U","NORAD_CAT_ID":58999,"ELEMENT_SET_NO":999,"REV_AT_EPOCH":11446,"BSTAR":-7.488561e-6,"MEAN_MOTION_DOT":-5.81e-6,"MEAN_MOTION_DDOT":0}]
